{"type": "FeatureCollection", "features": [ {"type": "Feature", "properties": {"norad_id": 33917, "name": "COSMOS 2251 DEB", "group": "cosmos-2251-debris", "lat": 14.035671806711212, "lon": -45.42069439720264, "alt_km": 937.921132267049, "timestamp": "2025-12-02T19:35:50.947502+00:00", "meta": {"OBJECT_NAME": "COSMOS 2251 DEB", "OBJECT_ID": "1993-036DW", "EPOCH": "2025-12-02T11:44:42.831168", "MEAN_MOTION": 13.69333928, "ECCENTRICITY": 0.0331054, "INCLINATION": 74.106, "RA_OF_ASC_NODE": 139.2, "ARG_OF_PERICENTER": 242.4118, "MEAN_ANOMALY": 114.3019, "EPHEMERIS_TYPE": 0, "CLASSIFICATION_TYPE": "U", "NORAD_CAT_ID": 33917, "ELEMENT_SET_NO": 999, "REV_AT_EPOCH": 83593, "BSTAR": 0.0009519, "MEAN_MOTION_DOT": 1.191e-05, "MEAN_MOTION_DDOT": 0}, "tle": {"line1": "1 33917U 93036DW  25336.48938462  .00001191  00000+0  95190-3 0  9995", "line2": "2 33917  74.1060 139.2000 0331054 242.4118 114.3019 13.69333928835930"}}, "geometry": {"type": "Point", "coordinates": [-45.42069439720264, 14.035671806711212]}}, {"type": "Feature", "properties": {"norad_id": 33920, "name": "COSMOS 2251 DEB", "group": "cosmos-2251-debris", "lat": -36.417872776315264, "lon": -54.89070216557274, "alt_km": 678.4707061934123, "timestamp": "2025-12-02T19:35:50.947513+00:00", "meta": {"OBJECT_NAME": "COSMOS 2251 DEB", "OBJECT_ID": "1993-036DZ", "EPOCH": "2025-12-02T04:56:58.153632", "MEAN_MOTION": 14.57956923, "ECCENTRICITY": 0.0038561, "INCLINATION": 74.0624, "RA_OF_ASC_NODE": 318.4379, "ARG_OF_PERICENTER": 326.615, "MEAN_ANOMALY": 33.2583, "EPHEMERIS_TYPE": 0, "CLASSIFICATION_TYPE": "U", "NORAD_CAT_ID": 33920, "ELEMENT_SET_NO": 999, "REV_AT_EPOCH": 87961, "BSTAR": 0.0024879, "MEAN_MOTION_DOT": 0.00011527, "MEAN_MOTION_DDOT": 0}, "tle": {"line1": "1 33920U 93036DZ  25336.20622863  .00011527  00000+0  24879-2 0  9993", "line2": "2 33920  74.0624 318.4379 0038561 326.6150  33.2583 14.57956923879619"}}, "geometry": {"type": "Point", "coordinates": [-54.89070216557274, -36.417872776315264]}}, {"type": "Feature", "properties": {"norad_id": 33922, "name": "COSMOS 2251 DEB", "group": "cosmos-2251-debris", "lat": 49.972326901765626, "lon": -173.71898029479692, "alt_km": 734.1615932403183, "timestamp": "2025-12-02T19:35:50.947537+00:00", "meta": {"OBJECT_NAME": "COSMOS 2251 DEB", "OBJECT_ID": "1993-036EB", "EPOCH": "2025-12-02T12:52:58.135008", "MEAN_MOTION": 14.49450072, "ECCENTRICITY": 0.002326, "INCLINATION": 74.0458, "RA_OF_ASC_NODE": 166.8927, "ARG_OF_PERICENTER": 278.6228, "MEAN_ANOMALY": 114.7523, "EPHEMERIS_TYPE": 0, "CLASSIFICATION_TYPE": "U", "NORAD_CAT_ID": 33922, "ELEMENT_SET_NO": 999, "REV_AT_EPOCH": 88430, "BSTAR": 0.00048813, "MEAN_MOTION_DOT": 1.848e-05, "MEAN_MOTION_DDOT": 0}, "tle": {"line1": "1 33922U 93036EB  25336.53678397  .00001848  00000+0  48813-3 0  9994", "line2": "2 33922  74.0458 166.8927 0023260 278.6228 114.7523 14.49450072884308"}}, "geometry": {"type": "Point", "coordinates": [-173.71898029479692, 49.972326901765626]}}, {"type": "Feature", "properties": {"norad_id": 33924, "name": "COSMOS 2251 DEB", "group": "cosmos-2251-debris", "lat": -69.50498365195477, "lon": -124.38105381904724, "alt_km": 844.4441752030534, "timestamp": "2025-12-02T19:35:50.947549+00:00", "meta": {"OBJECT_NAME": "COSMOS 2251 DEB", "OBJECT_ID": "1993-036ED", "EPOCH": "2025-12-02T07:30:14.685408", "MEAN_MOTION": 13.50189034, "ECCENTRICITY": 0.040407, "INCLINATION": 73.9131, "RA_OF_ASC_NODE": 286.9617, "ARG_OF_PERICENTER": 324.2468, "MEAN_ANOMALY": 33.2181, "EPHEMERIS_TYPE": 0, "CLASSIFICATION_TYPE": "U", "NORAD_CAT_ID": 33924, "ELEMENT_SET_NO": 999, "REV_AT_EPOCH": 82598, "BSTAR": 0.0015287, "MEAN_MOTION_DOT": 1.597e-05, "MEAN_MOTION_DDOT": 0}, "tle": {"line1": "1 33924U 93036ED  25336.31266997  .00001597  00000+0  15287-2 0  9990", "line2": "2 33924  73.9131 286.9617 0404070 324.2468  33.2181 13.50189034825984"}}, "geometry": {"type": "Point", "coordinates": [-124.38105381904724, -69.50498365195477]}}, {"type": "Feature", "properties": {"norad_id": 33928, "name": "COSMOS 2251 DEB", "group": "cosmos-2251-debris", "lat": -28.571184472417606, "lon": 62.21332644631072, "alt_km": 705.1429628382621, "timestamp": "2025-12-02T19:35:50.947559+00:00", "meta": {"OBJECT_NAME": "COSMOS 2251 DEB", "OBJECT_ID": "1993-036EH", "EPOCH": "2025-12-02T08:07:18.091776", "MEAN_MOTION": 14.47372635, "ECCENTRICITY": 0.0060958, "INCLINATION": 73.9259, "RA_OF_ASC_NODE": 72.1469, "ARG_OF_PERICENTER": 8.5688, "MEAN_ANOMALY": 351.6495, "EPHEMERIS_TYPE": 0, "CLASSIFICATION_TYPE": "U", "NORAD_CAT_ID": 33928, "ELEMENT_SET_NO": 999, "REV_AT_EPOCH": 88494, "BSTAR": 0.0003325, "MEAN_MOTION_DOT": 1.218e-05, "MEAN_MOTION_DDOT": 0}, "tle": {"line1": "1 33928U 93036EH  25336.33840384  .00001218  00000+0  33250-3 0  9995", "line2": "2 33928  73.9259  72.1469 0060958   8.5688 351.6495 14.47372635884942"}}, "geometry": {"type": "Point", "coordinates": [62.21332644631072, -28.571184472417606]}}, {"type": "Feature", "properties": {"norad_id": 33932, "name": "COSMOS 2251 DEB", "group": "cosmos-2251-debris", "lat": 53.86378495688151, "lon": -2.695390489543712, "alt_km": 732.5015776046303, "timestamp": "2025-12-02T19:35:50.947570+00:00", "meta": {"OBJECT_NAME": "COSMOS 2251 DEB", "OBJECT_ID": "1993-036EM", "EPOCH": "2025-12-02T10:59:25.043136", "MEAN_MOTION": 14.38709113, "ECCENTRICITY": 0.0034838, "INCLINATION": 74.0335, "RA_OF_ASC_NODE": 334.881, "ARG_OF_PERICENTER": 54.099, "MEAN_ANOMALY": 306.3389, "EPHEMERIS_TYPE": 0, "CLASSIFICATION_TYPE": "U", "NORAD_CAT_ID": 33932, "ELEMENT_SET_NO": 999, "REV_AT_EPOCH": 87850, "BSTAR": 0.00058156, "MEAN_MOTION_DOT": 1.771e-05, "MEAN_MOTION_DDOT": 0}, "tle": {"line1": "1 33932U 93036EM  25336.45792874  .00001771  00000+0  58156-3 0  9999", "line2": "2 33932  74.0335 334.8810 0034838  54.0990 306.3389 14.38709113878501"}}, "geometry": {"type": "Point", "coordinates": [-2.695390489543712, 53.86378495688151]}}, {"type": "Feature", "properties": {"norad_id": 33933, "name": "COSMOS 2251 DEB", "group": "cosmos-2251-debris", "lat": 73.72577645142411, "lon": -179.4955169815145, "alt_km": 722.1497053055073, "timestamp": "2025-12-02T19:35:50.947580+00:00", "meta": {"OBJECT_NAME": "COSMOS 2251 DEB", "OBJECT_ID": "1993-036EN", "EPOCH": "2025-12-02T09:07:03.959616", "MEAN_MOTION": 14.33459632, "ECCENTRICITY": 0.0070877, "INCLINATION": 74.089, "RA_OF_ASC_NODE": 79.0165, "ARG_OF_PERICENTER": 90.5511, "MEAN_ANOMALY": 270.3763, "EPHEMERIS_TYPE": 0, "CLASSIFICATION_TYPE": "U", "NORAD_CAT_ID": 33933, "ELEMENT_SET_NO": 999, "REV_AT_EPOCH": 87636, "BSTAR": 0.00043994, "MEAN_MOTION_DOT": 1.225e-05, "MEAN_MOTION_DDOT": 0}, "tle": {"line1": "1 33933U 93036EN  25336.37990694  .00001225  00000+0  43994-3 0  9999", "line2": "2 33933  74.0890  79.0165 0070877  90.5511 270.3763 14.33459632876367"}}, "geometry": {"type": "Point", "coordinates": [-179.4955169815145, 73.72577645142411]}}, {"type": "Feature", "properties": {"norad_id": 33934, "name": "COSMOS 2251 DEB", "group": "cosmos-2251-debris", "lat": 16.895852890557766, "lon": 124.46330108554635, "alt_km": 704.7275149267361, "timestamp": "2025-12-02T19:35:50.947591+00:00", "meta": {"OBJECT_NAME": "COSMOS 2251 DEB", "OBJECT_ID": "1993-036EP", "EPOCH": "2025-12-02T11:17:18.551040", "MEAN_MOTION": 14.5895289, "ECCENTRICITY": 0.0016027, "INCLINATION": 74.0364, "RA_OF_ASC_NODE": 120.1346, "ARG_OF_PERICENTER": 243.6493, "MEAN_ANOMALY": 116.3026, "EPHEMERIS_TYPE": 0, "CLASSIFICATION_TYPE": "U", "NORAD_CAT_ID": 33934, "ELEMENT_SET_NO": 999, "REV_AT_EPOCH": 88589, "BSTAR": 0.0012904, "MEAN_MOTION_DOT": 6.039e-05, "MEAN_MOTION_DDOT": 0}, "tle": {"line1": "1 33934U 93036EP  25336.47035360  .00006039  00000+0  12904-2 0  9995", "line2": "2 33934  74.0364 120.1346 0016027 243.6493 116.3026 14.58952890885890"}}, "geometry": {"type": "Point", "coordinates": [124.46330108554635, 16.895852890557766]}}, {"type": "Feature", "properties": {"norad_id": 33936, "name": "COSMOS 2251 DEB", "group": "cosmos-2251-debris", "lat": -72.8168558040261, "lon": -55.62361830122628, "alt_km": 686.8149753782027, "timestamp": "2025-12-02T19:35:50.947601+00:00", "meta": {"OBJECT_NAME": "COSMOS 2251 DEB", "OBJECT_ID": "1993-036ER", "EPOCH": "2025-12-02T11:49:00.817248", "MEAN_MOTION": 14.60152217, "ECCENTRICITY": 0.0028194, "INCLINATION": 74.0194, "RA_OF_ASC_NODE": 57.0667, "ARG_OF_PERICENTER": 214.1573, "MEAN_ANOMALY": 145.778, "EPHEMERIS_TYPE": 0, "CLASSIFICATION_TYPE": "U", "NORAD_CAT_ID": 33936, "ELEMENT_SET_NO": 999, "REV_AT_EPOCH": 88740, "BSTAR": 0.0010564, "MEAN_MOTION_DOT": 5.088e-05, "MEAN_MOTION_DDOT": 0}, "tle": {"line1": "1 33936U 93036ER  25336.49237057  .00005088  00000+0  10564-2 0  9999", "line2": "2 33936  74.0194  57.0667 0028194 214.1573 145.7780 14.60152217887407"}}, "geometry": {"type": "Point", "coordinates": [-55.62361830122628, -72.8168558040261]}}, {"type": "Feature", "properties": {"norad_id": 33938, "name": "COSMOS 2251 DEB", "group": "cosmos-2251-debris", "lat": -53.660815769606884, "lon": 68.58584341062767, "alt_km": 739.1857325867832, "timestamp": "2025-12-02T19:35:50.947611+00:00", "meta": {"OBJECT_NAME": "COSMOS 2251 DEB", "OBJECT_ID": "1993-036ET", "EPOCH": "2025-12-02T04:17:08.373696", "MEAN_MOTION": 14.46737813, "ECCENTRICITY": 0.00168402, "INCLINATION": 74.0461, "RA_OF_ASC_NODE": 226.8923, "ARG_OF_PERICENTER": 309.9112, "MEAN_ANOMALY": 205.6335, "EPHEMERIS_TYPE": 0, "CLASSIFICATION_TYPE": "U", "NORAD_CAT_ID": 33938, "ELEMENT_SET_NO": 999, "REV_AT_EPOCH": 88247, "BSTAR": 0.00054705658, "MEAN_MOTION_DOT": 1.956e-05, "MEAN_MOTION_DDOT": 0}, "tle": {"line1": "1 33938U 93036ET  25336.17856914  .00001956  00000+0  54706-3 0  9992", "line2": "2 33938  74.0461 226.8923 0016840 309.9112 205.6335 14.46737813882473"}}, "geometry": {"type": "Point", "coordinates": [68.58584341062767, -53.660815769606884]}}]}